#aV2023  4 23  0  0  0.00000000     288 DD+AD WGS84 FIT  NGA
## 2259      0.00000000   300.00000000 60057 0.0000000000000
+   32     1  2  3  4  5  6  7  8  9 10 11 12 13 14 15 16 17
+         18 19 20 21 22 23 24 25 26 27 28 29 30 31 32  0  0
+          0  0  0  0  0  0  0  0  0  0  0  0  0  0  0  0  0
+          0  0  0  0  0  0  0  0  0  0  0  0  0  0  0  0  0
+          0  0  0  0  0  0  0  0  0  0  0  0  0  0  0  0  0
++         2  2  2  2  2  2  2  2  2  2  2  2  2  2  2  2  2
++         2  2  2  2  2  2  2  2  2  2  2  2  2  2  2  0  0
++         0  0  0  0  0  0  0  0  0  0  0  0  0  0  0  0  0
++         0  0  0  0  0  0  0  0  0  0  0  0  0  0  0  0  0
++         0  0  0  0  0  0  0  0  0  0  0  0  0  0  0  0  0
%c cc cc ccc ccc cccc cccc cccc cccc ccccc ccccc ccccc ccccc
%c cc cc ccc ccc cccc cccc cccc cccc ccccc ccccc ccccc ccccc
%f  0.0000000  0.000000000  0.00000000000  0.000000000000000
%f  0.0000000  0.000000000  0.00000000000  0.000000000000000
%i    0    0    0    0      0      0      0      0         0
%i    0    0    0    0      0      0      0      0         0
/*      NGA, ST. LOUIS,MO.                                  
/*   EPHEMERIS COMPUTED FROM 2 DAYS OF DATA                 
/*   EPOCHA v8 SMOOTHER                                     
/*   G2139 IERS2010 SATIGS SATAPC                           
*  2023  4 23 20 35  0.00000000
P  1  22244.345640  14669.053243   2085.411977    190.788264                    
V  1   1484.347833   3077.863480 -32011.939586     -0.031617                    
P  2 -18877.233872   3101.839869 -17871.463024   -603.120567                    
V  2 -19546.466744 -13602.431226  17976.798797      0.037297                    
P  3  12816.710710  10860.158773  20476.207489   -321.939525                    
V  3  -3236.649453  26016.552206 -11582.536886      0.094327                    
P  4  21217.591084   3044.602227  15768.831244     24.136022                    
V  4 -17700.905849   9390.952176  21910.520558      0.093754                    
P  5  -5857.313998 -23862.247917 -10102.052336   -124.543122                    
V  5   3018.995390 -12481.217414  28328.436993     -0.014641                    
P  6   7139.025303 -12835.162779  22187.403261    587.617809                    
V  6  22742.964996  16239.965840   2178.700462      0.007850                    
P  7  22164.459826   3402.307777 -14151.361760    194.592039                    
V  7  13860.988060  12555.540125  23485.712210     -0.087670                    
P  8  11364.235952  11140.441227 -21386.605207   -119.166698                    
V  8 -24015.530469  12216.037470  -6031.262362     -0.018176                    
P  9  24768.776909  -6430.326975   7124.961825   -173.757582                    
V  9  -6994.426372   6513.107780  29853.322895      0.080677                    
P 10 -11103.463078  19499.564773 -13786.073820    -34.078686                    
V 10   -385.407900 -18004.153999 -25135.573933     -0.016461                    
P 11  -6971.415838 -19835.251642  16260.474352   -172.559689                    
V 11  17266.668845  11382.753854  21263.717541     -0.130034                    
P 12 -11160.464123 -14156.340425  19254.233414   -367.564922                    
V 12   5295.150212 -24476.820081 -14627.874590     -0.046567                    
P 13  -2794.203654 -14905.396556 -21971.139114    510.083802                    
V 13  26367.057484  -7682.561912   2071.846832      0.055117                    
P 14  13361.584902 -16750.858412 -15593.369076     34.348114                    
V 14   -203.130275  20035.741530 -21827.094909      0.119660                    
P 15 -13178.594017 -10231.535248 -21162.327495     33.305464                    
V 15  21496.879980 -14465.793051  -6267.596261      0.034234                    
P 16    965.012112  25174.491800  -7939.008401   -506.615994                    
V 16  -4516.343693   9123.696767  29959.461139      0.029037                    
P 17  21587.231846 -13831.717822   7569.950287    711.946621                    
V 17   9143.062535  -1294.747287 -30050.551289      0.017103                    
P 18 -20114.115421   -132.278912 -17422.133406   -237.066509                    
V 18 -16907.545254 -14192.544829  19481.289158     -0.163869                    
P 19  15157.204996 -15660.104792  14745.718719    307.642769                    
V 19  18870.792474  -4170.711512 -23747.996490      0.050884                    
P 20  -1857.675376 -26605.185537    162.090860    437.382953                    
V 20   3054.520149    -62.646271  31341.137361     -0.021175                    
P 21  20323.182749  16622.203798  -5769.909664    154.120787                    
V 21  -7843.408330  -2200.432341 -30117.891608     -0.001309                    
P 22 -11408.887495  16961.750432  17318.248191    469.421179                    
V 22 -20496.663903   5624.534816 -19682.096550      0.067052                    
P 23 -14615.797625   7856.193849 -20698.700154     18.938410                    
V 23    812.231251 -26296.503626 -10695.932541      0.027287                    
P 24 -21871.506329 -15263.058967  -2868.719306   -163.072033                    
V 24   4389.032931  -1181.933286 -30609.680266     -0.143942                    
P 25 -15118.355907  -1871.436604  21447.497182    437.820126                    
V 25   2226.939252 -27915.518225   -591.378450      0.028020                    
P 26  -4799.205120  25303.162589   5596.041579    241.523698                    
V 26  -3636.241886  -7447.658240  30273.389392     -0.003287                    
P 27   -747.956486  16345.827905 -21083.906547     52.370864                    
V 27 -24221.877794  10221.585199   9295.771505     -0.083565                    
P 28  -8841.402653  12349.445230  21763.434851     69.506822                    
V 28 -23096.560505 -15277.784996   -718.452901      0.054352                    
P 29 -24454.387732   1626.705177  10290.263569   -596.735824                    
V 29  11592.047755  -6413.250776  28326.144024     -0.015974                    
P 30  15121.635550  -7617.030013 -20409.052314   -520.887158                    
V 30  20670.761426  16118.907262   8985.636242      0.019468                    
P 31   -880.096072  17047.985334  20066.391916   -214.633869                    
V 31 -21660.185796 -14438.500009  11654.041888     -0.008266                    
P 32 -18939.480447  16084.494440   9278.652721   -459.224360                    
V 32 -11649.682535   2471.320299 -28806.694764     -0.098038                    
EOF
